{
  "type": "FeatureCollection",
  "features": [
    {
      "type": "Feature",
      "properties": {
        "norad_id": 43706,
        "name": "BEIDOU-3 M17 (C36)",
        "group": "beidou",
        "lat": -9.694492851361971,
        "lon": 15.260315545873308,
        "alt_km": 21536.95248904976,
        "timestamp": "2025-12-26T03:50:12.358841+00:00",
        "meta_object_name": "BEIDOU-3 M17 (C36)",
        "meta_object_id": "2018-093A",
        "meta_epoch": "2025-12-25T01:59:52.471680",
        "meta_mean_motion": 1.86228331,
        "meta_eccentricity": 0.00060142,
        "meta_inclination": 54.1734,
        "meta_ra_of_asc_node": 188.2028,
        "meta_arg_of_pericenter": 307.2012,
        "meta_mean_anomaly": 243.0238,
        "meta_ephemeris_type": 0,
        "meta_classification_type": "U",
        "meta_norad_cat_id": 43706,
        "meta_element_set_no": 999,
        "meta_rev_at_epoch": 4829,
        "meta_bstar": 0,
        "meta_mean_motion_dot": 1.09e-06,
        "meta_mean_motion_ddot": 0,
        "tle_line1": "1 43706U 18093A   25359.08324620  .00000109  00000+0  00000+0 0  9998",
        "tle_line2": "2 43706  54.1734 188.2028 0006014 307.2012 243.0238  1.86228331 48290"
      },
      "geometry": {
        "type": "Point",
        "coordinates": [
          15.260315545873308,
          -9.694492851361971
        ]
      }
    },
    {
      "type": "Feature",
      "properties": {
        "norad_id": 43707,
        "name": "BEIDOU-3 M18 (C37)",
        "group": "beidou",
        "lat": -51.60668864224944,
        "lon": 122.37963315707836,
        "alt_km": 21528.09366036132,
        "timestamp": "2025-12-26T03:50:12.358852+00:00",
        "meta_object_name": "BEIDOU-3 M18 (C37)",
        "meta_object_id": "2018-093B",
        "meta_epoch": "2025-12-23T01:12:21.238848",
        "meta_mean_motion": 1.86226616,
        "meta_eccentricity": 0.0006147,
        "meta_inclination": 54.1741,
        "meta_ra_of_asc_node": 188.2636,
        "meta_arg_of_pericenter": 354.1254,
        "meta_mean_anomaly": 5.9078,
        "meta_ephemeris_type": 0,
        "meta_classification_type": "U",
        "meta_norad_cat_id": 43707,
        "meta_element_set_no": 999,
        "meta_rev_at_epoch": 4825,
        "meta_bstar": 0,
        "meta_mean_motion_dot": 9.6e-07,
        "meta_mean_motion_ddot": 0,
        "tle_line1": "1 43707U 18093B   25357.05024582  .00000096  00000+0  00000+0 0  9993",
        "tle_line2": "2 43707  54.1741 188.2636 0006147 354.1254   5.9078  1.86226616 48257"
      },
      "geometry": {
        "type": "Point",
        "coordinates": [
          122.37963315707836,
          -51.60668864224944
        ]
      }
    },
    {
      "type": "Feature",
      "properties": {
        "norad_id": 44231,
        "name": "BEIDOU-2 G8 (C01)",
        "group": "beidou",
        "lat": -1.1559274180350183,
        "lon": -63.09316855200081,
        "alt_km": 35757.44739428873,
        "timestamp": "2025-12-26T03:50:12.358864+00:00",
        "meta_object_name": "BEIDOU-2 G8 (C01)",
        "meta_object_id": "2019-027A",
        "meta_epoch": "2025-12-25T18:53:23.711136",
        "meta_mean_motion": 1.00274194,
        "meta_eccentricity": 0.0008325,
        "meta_inclination": 1.6928,
        "meta_ra_of_asc_node": 74.7393,
        "meta_arg_of_pericenter": 258.9605,
        "meta_mean_anomaly": 188.7082,
        "meta_ephemeris_type": 0,
        "meta_classification_type": "U",
        "meta_norad_cat_id": 44231,
        "meta_element_set_no": 999,
        "meta_rev_at_epoch": 2434,
        "meta_bstar": 0,
        "meta_mean_motion_dot": -2.26e-06,
        "meta_mean_motion_ddot": 0,
        "tle_line1": "1 44231U 19027A   25359.78707999 -.00000226  00000+0  00000+0 0  9992",
        "tle_line2": "2 44231   1.6928  74.7393 0008325 258.9605 188.7082  1.00274194 24343"
      },
      "geometry": {
        "type": "Point",
        "coordinates": [
          -63.09316855200081,
          -1.1559274180350183
        ]
      }
    },
    {
      "type": "Feature",
      "properties": {
        "norad_id": 44337,
        "name": "BEIDOU-3 IGSO-2 (C39)",
        "group": "beidou",
        "lat": 50.043353125500175,
        "lon": -75.70410507143485,
        "alt_km": 35785.81629965803,
        "timestamp": "2025-12-26T03:50:12.358876+00:00",
        "meta_object_name": "BEIDOU-3 IGSO-2 (C39)",
        "meta_object_id": "2019-035A",
        "meta_epoch": "2025-12-25T18:13:52.363776",
        "meta_mean_motion": 1.00267205,
        "meta_eccentricity": 0.0037878,
        "meta_inclination": 55.2292,
        "meta_ra_of_asc_node": 160.387,
        "meta_arg_of_pericenter": 202.6493,
        "meta_mean_anomaly": 124.2453,
        "meta_ephemeris_type": 0,
        "meta_classification_type": "U",
        "meta_norad_cat_id": 44337,
        "meta_element_set_no": 999,
        "meta_rev_at_epoch": 2392,
        "meta_bstar": 0,
        "meta_mean_motion_dot": -6.4e-07,
        "meta_mean_motion_ddot": 0,
        "tle_line1": "1 44337U 19035A   25359.75963384 -.00000064  00000+0  00000+0 0  9997",
        "tle_line2": "2 44337  55.2292 160.3870 0037878 202.6493 124.2453  1.00267205 23922"
      },
      "geometry": {
        "type": "Point",
        "coordinates": [
          -75.70410507143485,
          50.043353125500175
        ]
      }
    },
    {
      "type": "Feature",
      "properties": {
        "norad_id": 44542,
        "name": "BEIDOU-3 M24 (C46)",
        "group": "beidou",
        "lat": -43.175584158220154,
        "lon": 50.81859192519296,
        "alt_km": 21556.11172415761,
        "timestamp": "2025-12-26T03:50:12.358887+00:00",
        "meta_object_name": "BEIDOU-3 M24 (C46)",
        "meta_object_id": "2019-061A",
        "meta_epoch": "2025-12-24T17:34:06.027744",
        "meta_mean_motion": 1.86229347,
        "meta_eccentricity": 0.00095746,
        "meta_inclination": 54.4007,
        "meta_ra_of_asc_node": 188.6113,
        "meta_arg_of_pericenter": 26.2213,
        "meta_mean_anomaly": 333.8628,
        "meta_ephemeris_type": 0,
        "meta_classification_type": "U",
        "meta_norad_cat_id": 44542,
        "meta_element_set_no": 999,
        "meta_rev_at_epoch": 4254,
        "meta_bstar": 0,
        "meta_mean_motion_dot": 1.06e-06,
        "meta_mean_motion_ddot": 0,
        "tle_line1": "1 44542U 19061A   25358.73201421  .00000106  00000+0  00000+0 0  9994",
        "tle_line2": "2 44542  54.4007 188.6113 0009574  26.2213 333.8628  1.86229347 42540"
      },
      "geometry": {
        "type": "Point",
        "coordinates": [
          50.81859192519296,
          -43.175584158220154
        ]
      }
    },
    {
      "type": "Feature",
      "properties": {
        "norad_id": 44543,
        "name": "BEIDOU-3 M23 (C45)",
        "group": "beidou",
        "lat": 23.87983711623496,
        "lon": -9.964778925796262,
        "alt_km": 21534.928148336945,
        "timestamp": "2025-12-26T03:50:12.358898+00:00",
        "meta_object_name": "BEIDOU-3 M23 (C45)",
        "meta_object_id": "2019-061B",
        "meta_epoch": "2025-12-25T03:38:38.812704",
        "meta_mean_motion": 1.86227443,
        "meta_eccentricity": 0.00060137,
        "meta_inclination": 54.3997,
        "meta_ra_of_asc_node": 188.5655,
        "meta_arg_of_pericenter": 25.8754,
        "meta_mean_anomaly": 168.3625,
        "meta_ephemeris_type": 0,
        "meta_classification_type": "U",
        "meta_norad_cat_id": 44543,
        "meta_element_set_no": 999,
        "meta_rev_at_epoch": 4255,
        "meta_bstar": 0,
        "meta_mean_motion_dot": 1.1e-06,
        "meta_mean_motion_ddot": 0,
        "tle_line1": "1 44543U 19061B   25359.15183811  .00000110  00000+0  00000+0 0  9999",
        "tle_line2": "2 44543  54.3997 188.5655 0006013  25.8754 168.3625  1.86227443 42552"
      },
      "geometry": {
        "type": "Point",
        "coordinates": [
          -9.964778925796262,
          23.87983711623496
        ]
      }
    },
    {
      "type": "Feature",
      "properties": {
        "norad_id": 44793,
        "name": "BEIDOU-3 M22 (C44)",
        "group": "beidou",
        "lat": -12.442094440036884,
        "lon": -63.288062102162,
        "alt_km": 21516.628915737107,
        "timestamp": "2025-12-26T03:50:12.358909+00:00",
        "meta_object_name": "BEIDOU-3 M22 (C44)",
        "meta_object_id": "2019-078A",
        "meta_epoch": "2025-12-22T23:04:03.320256",
        "meta_mean_motion": 1.86232206,
        "meta_eccentricity": 0.00060944,
        "meta_inclination": 54.0989,
        "meta_ra_of_asc_node": 306.0279,
        "meta_arg_of_pericenter": 24.0205,
        "meta_mean_anomaly": 336.0117,
        "meta_ephemeris_type": 0,
        "meta_classification_type": "U",
        "meta_norad_cat_id": 44793,
        "meta_element_set_no": 999,
        "meta_rev_at_epoch": 4136,
        "meta_bstar": 0,
        "meta_mean_motion_dot": -5.4e-07,
        "meta_mean_motion_ddot": 0,
        "tle_line1": "1 44793U 19078A   25356.96114954 -.00000054  00000+0  00000+0 0  9990",
        "tle_line2": "2 44793  54.0989 306.0279 0006094  24.0205 336.0117  1.86232206 41368"
      },
      "geometry": {
        "type": "Point",
        "coordinates": [
          -63.288062102162,
          -12.442094440036884
        ]
      }
    }
  ]
}